{
  "type": "FeatureCollection",
  "features": [
    {
      "type": "Feature",
      "properties": {
        "norad_id": 44709,
        "name": "BEIDOU-3 IGSO-3 (C40)",
        "group": "beidou",
        "lat": 37.59192327815872,
        "lon": 70.5231794634746,
        "alt_km": 35693.70438029854,
        "timestamp": "2025-12-09T14:52:26.427310+00:00",
        "meta_object_name": "BEIDOU-3 IGSO-3 (C40)",
        "meta_object_id": "2019-073A",
        "meta_epoch": "2025-11-20T07:11:22.740000",
        "meta_mean_motion": 1.00250097,
        "meta_eccentricity": 0.0044538,
        "meta_inclination": 55.163,
        "meta_ra_of_asc_node": 283.159,
        "meta_arg_of_pericenter": 191.5856,
        "meta_mean_anomaly": 168.2409,
        "meta_ephemeris_type": 0,
        "meta_classification_type": "U",
        "meta_norad_cat_id": 44709,
        "meta_element_set_no": 999,
        "meta_rev_at_epoch": 2236,
        "meta_bstar": 0,
        "meta_mean_motion_dot": -2.06e-06,
        "meta_mean_motion_ddot": 0,
        "tle_line1": "1 44709U 19073A   25324.29956875 -.00000206  00000+0  00000+0 0  9998",
        "tle_line2": "2 44709  55.1630 283.1590 0044538 191.5856 168.2409  1.00250097 22360"
      },
      "geometry": {
        "type": "Point",
        "coordinates": [
          70.5231794634746,
          37.59192327815872
        ]
      }
    },
    {
      "type": "Feature",
      "properties": {
        "norad_id": 44793,
        "name": "BEIDOU-3 M22 (C44)",
        "group": "beidou",
        "lat": 41.74872515912113,
        "lon": -13.303205256931435,
        "alt_km": 21509.703669017083,
        "timestamp": "2025-12-09T14:52:26.427325+00:00",
        "meta_object_name": "BEIDOU-3 M22 (C44)",
        "meta_object_id": "2019-078A",
        "meta_epoch": "2025-12-09T00:00:40.080096",
        "meta_mean_motion": 1.86231694,
        "meta_eccentricity": 0.00056078,
        "meta_inclination": 54.1119,
        "meta_ra_of_asc_node": 306.5176,
        "meta_arg_of_pericenter": 23.0098,
        "meta_mean_anomaly": 337.0045,
        "meta_ephemeris_type": 0,
        "meta_classification_type": "U",
        "meta_norad_cat_id": 44793,
        "meta_element_set_no": 999,
        "meta_rev_at_epoch": 4110,
        "meta_bstar": 0,
        "meta_mean_motion_dot": -7.5e-07,
        "meta_mean_motion_ddot": 0,
        "tle_line1": "1 44793U 19078A   25343.00046389 -.00000075  00000+0  00000+0 0  9990",
        "tle_line2": "2 44793  54.1119 306.5176 0005607  23.0098 337.0045  1.86231694 41106"
      },
      "geometry": {
        "type": "Point",
        "coordinates": [
          -13.303205256931435,
          41.74872515912113
        ]
      }
    },
    {
      "type": "Feature",
      "properties": {
        "norad_id": 44794,
        "name": "BEIDOU-3 M21 (C43)",
        "group": "beidou",
        "lat": -29.224262240882332,
        "lon": -77.45884827435731,
        "alt_km": 21524.809220956748,
        "timestamp": "2025-12-09T14:52:26.427336+00:00",
        "meta_object_name": "BEIDOU-3 M21 (C43)",
        "meta_object_id": "2019-078B",
        "meta_epoch": "2025-12-08T14:25:34.118976",
        "meta_mean_motion": 1.86227419,
        "meta_eccentricity": 0.00038351,
        "meta_inclination": 54.0855,
        "meta_ra_of_asc_node": 306.4969,
        "meta_arg_of_pericenter": 9.829,
        "meta_mean_anomaly": 350.1669,
        "meta_ephemeris_type": 0,
        "meta_classification_type": "U",
        "meta_norad_cat_id": 44794,
        "meta_element_set_no": 999,
        "meta_rev_at_epoch": 4110,
        "meta_bstar": 0,
        "meta_mean_motion_dot": -7.4e-07,
        "meta_mean_motion_ddot": 0,
        "tle_line1": "1 44794U 19078B   25342.60108934 -.00000074  00000+0  00000+0 0  9990",
        "tle_line2": "2 44794  54.0855 306.4969 0003835   9.8290 350.1669  1.86227419 41107"
      },
      "geometry": {
        "type": "Point",
        "coordinates": [
          -77.45884827435731,
          -29.224262240882332
        ]
      }
    },
    {
      "type": "Feature",
      "properties": {
        "norad_id": 44864,
        "name": "BEIDOU-3 M19 (C41)",
        "group": "beidou",
        "lat": 17.744721485570466,
        "lon": -123.1952480188949,
        "alt_km": 21555.042067611255,
        "timestamp": "2025-12-09T14:52:26.427348+00:00",
        "meta_object_name": "BEIDOU-3 M19 (C41)",
        "meta_object_id": "2019-090A",
        "meta_epoch": "2025-12-02T22:27:31.551840",
        "meta_mean_motion": 1.86231053,
        "meta_eccentricity": 0.00175607,
        "meta_inclination": 56.3847,
        "meta_ra_of_asc_node": 69.2872,
        "meta_arg_of_pericenter": 284.9296,
        "meta_mean_anomaly": 72.494,
        "meta_ephemeris_type": 0,
        "meta_classification_type": "U",
        "meta_norad_cat_id": 44864,
        "meta_element_set_no": 999,
        "meta_rev_at_epoch": 4057,
        "meta_bstar": 0,
        "meta_mean_motion_dot": -4.9e-07,
        "meta_mean_motion_ddot": 0,
        "tle_line1": "1 44864U 19090A   25336.93578185 -.00000049  00000+0  00000+0 0  9992",
        "tle_line2": "2 44864  56.3847  69.2872 0017560 284.9296  72.4940  1.86231053 40575"
      },
      "geometry": {
        "type": "Point",
        "coordinates": [
          -123.1952480188949,
          17.744721485570466
        ]
      }
    },
    {
      "type": "Feature",
      "properties": {
        "norad_id": 44865,
        "name": "BEIDOU-3 M20 (C42)",
        "group": "beidou",
        "lat": -50.653537159511814,
        "lon": -56.794711970143325,
        "alt_km": 21506.944700595133,
        "timestamp": "2025-12-09T14:52:26.427359+00:00",
        "meta_object_name": "BEIDOU-3 M20 (C42)",
        "meta_object_id": "2019-090B",
        "meta_epoch": "2025-12-09T06:01:46.671168",
        "meta_mean_motion": 1.86231243,
        "meta_eccentricity": 0.00148506,
        "meta_inclination": 56.3923,
        "meta_ra_of_asc_node": 69.1112,
        "meta_arg_of_pericenter": 298.012,
        "meta_mean_anomaly": 63.2082,
        "meta_ephemeris_type": 0,
        "meta_classification_type": "U",
        "meta_norad_cat_id": 44865,
        "meta_element_set_no": 999,
        "meta_rev_at_epoch": 4068,
        "meta_bstar": 0,
        "meta_mean_motion_dot": -4.8e-07,
        "meta_mean_motion_ddot": 0,
        "tle_line1": "1 44865U 19090B   25343.25123462 -.00000048  00000+0  00000+0 0  9999",
        "tle_line2": "2 44865  56.3923  69.1112 0014850 298.0120  63.2082  1.86231243 40686"
      },
      "geometry": {
        "type": "Point",
        "coordinates": [
          -56.794711970143325,
          -50.653537159511814
        ]
      }
    },
    {
      "type": "Feature",
      "properties": {
        "norad_id": 45344,
        "name": "BEIDOU-3 G2 (C60)",
        "group": "beidou",
        "lat": -0.9239184046367482,
        "lon": 21.796740962593137,
        "alt_km": 35780.35253110317,
        "timestamp": "2025-12-09T14:52:26.427371+00:00",
        "meta_object_name": "BEIDOU-3 G2 (C60)",
        "meta_object_id": "2020-017A",
        "meta_epoch": "2025-12-08T17:24:33.367680",
        "meta_mean_motion": 1.00273181,
        "meta_eccentricity": 0.00043587,
        "meta_inclination": 2.49,
        "meta_ra_of_asc_node": 43.8378,
        "meta_arg_of_pericenter": 265.5358,
        "meta_mean_anomaly": 109.5017,
        "meta_ephemeris_type": 0,
        "meta_classification_type": "U",
        "meta_norad_cat_id": 45344,
        "meta_element_set_no": 999,
        "meta_rev_at_epoch": 2135,
        "meta_bstar": 0,
        "meta_mean_motion_dot": -1.39e-06,
        "meta_mean_motion_ddot": 0,
        "tle_line1": "1 45344U 20017A   25342.72538620 -.00000139  00000+0  00000+0 0  9991",
        "tle_line2": "2 45344   2.4900  43.8378 0004358 265.5358 109.5017  1.00273181 21351"
      },
      "geometry": {
        "type": "Point",
        "coordinates": [
          21.796740962593137,
          -0.9239184046367482
        ]
      }
    },
    {
      "type": "Feature",
      "properties": {
        "norad_id": 45807,
        "name": "BEIDOU-3 G3 (C61)",
        "group": "beidou",
        "lat": -0.47125242944588897,
        "lon": 52.29117087393231,
        "alt_km": 35765.51020478264,
        "timestamp": "2025-12-09T14:52:26.427382+00:00",
        "meta_object_name": "BEIDOU-3 G3 (C61)",
        "meta_object_id": "2020-040A",
        "meta_epoch": "2025-12-08T17:33:17.532288",
        "meta_mean_motion": 1.00275813,
        "meta_eccentricity": 0.00060306,
        "meta_inclination": 1.9816,
        "meta_ra_of_asc_node": 66.5886,
        "meta_arg_of_pericenter": 306.262,
        "meta_mean_anomaly": 78.7159,
        "meta_ephemeris_type": 0,
        "meta_classification_type": "U",
        "meta_norad_cat_id": 45807,
        "meta_element_set_no": 999,
        "meta_rev_at_epoch": 2016,
        "meta_bstar": 0,
        "meta_mean_motion_dot": -3.52e-06,
        "meta_mean_motion_ddot": 0,
        "tle_line1": "1 45807U 20040A   25342.73145292 -.00000352  00000+0  00000+0 0  9998",
        "tle_line2": "2 45807   1.9816  66.5886 0006030 306.2620  78.7159  1.00275813 20161"
      },
      "geometry": {
        "type": "Point",
        "coordinates": [
          52.29117087393231,
          -0.47125242944588897
        ]
      }
    }
  ]
}